      2.10          N: GNSS NAV DATA                        RINEX VERSION / TYPE
fic2rin                                 06/30/2021 00:17:01 PGM / RUN BY / DATE
                                                            END OF HEADER
 7 21  6 29  6  0  0.0 1.901080831885e-04 9.322320693173e-12 0.000000000000e+00
    5.100000000000e+01 2.243750000000e+01 5.220574600744e-09 1.594404753929e+00
    1.179054379463e-06 1.512486045249e-02 6.962567567825e-06 5.153749086380e+03
    1.944000000000e+05-4.135072231293e-07-9.231069695105e-01 9.685754776001e-08
    9.513002009232e-01 2.462812500000e+02-2.322652691305e+00-8.433922735306e-09
    1.253623647028e-10 1.000000000000e+00 2.164000000000e+03 0.000000000000e+00
    2.400000000000e+00 0.000000000000e+00-1.117587089539e-08 5.100000000000e+01
    1.872000000000e+05 4.000000000000e+00
 4 21  6 29  6  0  0.0-2.011740580201e-04-1.023181539495e-12 0.000000000000e+00
    2.300000000000e+02-3.218750000000e+01 4.525188492264e-09-2.459210318404e+00
   -1.724809408188e-06 1.284132245928e-03 1.051463186741e-05 5.153728982925e+03
    1.944000000000e+05 1.862645149231e-09-1.944762758581e+00-2.793967723846e-08
    9.602833020540e-01 1.820937500000e+02-2.932351843516e+00-7.867470568871e-09
    3.650152043484e-10 1.000000000000e+00 2.164000000000e+03 0.000000000000e+00
    2.400000000000e+00 0.000000000000e+00-4.190951585770e-09 4.860000000000e+02
    1.872000000000e+05 4.000000000000e+00
15 21  6 29  6  0  0.0-1.391032710671e-04 2.614797267597e-12 0.000000000000e+00
    1.500000000000e+01-4.456250000000e+01 5.029495212949e-09-2.770708269818e+00
   -2.663582563400e-06 1.325603341684e-02 1.137517392635e-05 5.153644798279e+03
    1.944000000000e+05 1.415610313416e-07-2.095830836041e+00-1.657754182816e-07
    9.289567005353e-01 1.397812500000e+02 9.936857097184e-01-8.009976504816e-09
    3.864446684002e-10 1.000000000000e+00 2.164000000000e+03 0.000000000000e+00
    2.400000000000e+00 0.000000000000e+00-1.071020960808e-08 1.500000000000e+01
    1.872000000000e+05 4.000000000000e+00
14 21  6 29  6  0  0.0 5.923351272941e-05-8.412825991400e-12 0.000000000000e+00
    2.300000000000e+01 1.187500000000e+00 4.742340394656e-09 9.970671336768e-01
   -1.117587089539e-08 8.391275769100e-04 7.662922143936e-06 5.153753448486e+03
    1.944000000000e+05-5.029141902924e-08 1.597924805468e-01-6.519258022308e-08
    9.569851371522e-01 2.258750000000e+02 2.889160616496e+00-8.146053601544e-09
   -5.946676274365e-10 1.000000000000e+00 2.164000000000e+03 0.000000000000e+00
    2.400000000000e+00 0.000000000000e+00-7.916241884232e-09 2.300000000000e+01
    1.872000000000e+05 4.000000000000e+00
16 21  6 29  6  0  0.0-3.488617949188e-04-6.139089236967e-12 0.000000000000e+00
    4.800000000000e+01 4.531250000000e+00 4.320894268304e-09-9.720879610797e-01
    2.644956111908e-07 1.217971730512e-02 8.186325430870e-06 5.153715065002e+03
    1.944000000000e+05 2.756714820862e-07 2.061461034298e-01 1.210719347000e-07
    9.735815799578e-01 2.287187500000e+02 6.791253338732e-01-7.928901699153e-09
   -5.807384758028e-10 1.000000000000e+00 2.164000000000e+03 0.000000000000e+00
    2.400000000000e+00 0.000000000000e+00-1.024454832077e-08 4.800000000000e+01
    1.872000000000e+05 4.000000000000e+00
 9 21  6 29  6  0  0.0-3.533354029059e-04-1.705302565824e-12 0.000000000000e+00
    7.400000000000e+01-2.893750000000e+01 4.671266005551e-09-1.443818503167e+00
   -1.402571797371e-06 1.885188044980e-03 1.027248799801e-05 5.153761661530e+03
    1.944000000000e+05-1.303851604462e-08-1.995872933788e+00 2.235174179077e-08
    9.531951889314e-01 1.830312500000e+02 1.830260116629e+00-7.982475359282e-09
    3.518003681831e-10 1.000000000000e+00 2.164000000000e+03 0.000000000000e+00
    2.400000000000e+00 0.000000000000e+00 1.396983861923e-09 7.400000000000e+01
    1.872000000000e+05 4.000000000000e+00
10 21  6 29  6  0  0.0-1.518093049526e-04-7.617018127348e-12 0.000000000000e+00
    7.800000000000e+01-1.015625000000e+02 4.352324148913e-09 1.845521554523e-01
   -5.235895514488e-06 6.707813357934e-03 6.079673767090e-06 5.153677425385e+03
    1.944000000000e+05 5.029141902924e-08-3.028061931985e+00 1.825392246246e-07
    9.699809699094e-01 2.692500000000e+02-2.569980210769e+00-8.189984002850e-09
   -6.607418082628e-11 1.000000000000e+00 2.164000000000e+03 0.000000000000e+00
    2.400000000000e+00 0.000000000000e+00 2.328306436539e-09 7.800000000000e+01
    1.872000000000e+05 4.000000000000e+00
 8 21  6 29  6  0  0.0-2.687470987439e-05-1.364242052659e-12 0.000000000000e+00
    1.020000000000e+02 6.743750000000e+01 4.080169955456e-09-1.823800205399e+00
    3.568828105927e-06 6.353992735967e-03 9.296461939812e-06 5.153621156693e+03
    1.944000000000e+05-7.078051567078e-08 1.145066405458e+00-2.421438694000e-08
    9.670104181968e-01 2.052187500000e+02 5.986411607215e-02-7.828897533578e-09
   -2.464388365953e-11 1.000000000000e+00 2.164000000000e+03 0.000000000000e+00
    3.400000000000e+00 0.000000000000e+00 5.122274160385e-09 1.020000000000e+02
    1.872000000000e+05 4.000000000000e+00
31 21  6 29  6  0  0.0-1.257481053472e-04-2.160049916711e-12 0.000000000000e+00
    5.400000000000e+01 2.112500000000e+01 5.123070539309e-09 1.053984433882e+00
    1.365318894386e-06 1.002860092558e-02 6.515532732010e-06 5.153552127838e+03
    1.944000000000e+05 5.587935447693e-08-9.059190074829e-01 8.195638656616e-08
    9.556164953656e-01 2.491875000000e+02 2.668935162720e-01-8.336061516137e-09
    1.250052069686e-11 1.000000000000e+00 2.164000000000e+03 0.000000000000e+00
    2.400000000000e+00 0.000000000000e+00-1.303851604462e-08 5.400000000000e+01
    1.872000000000e+05 4.000000000000e+00
30 21  6 29  6  0  0.0-4.447307437658e-04-4.547473508865e-12 0.000000000000e+00
    2.700000000000e+01 2.878125000000e+01 5.587018436029e-09 1.439975788954e+00
    1.676380634308e-06 5.328453029506e-03 6.316229701042e-06 5.153680467606e+03
    1.944000000000e+05 3.166496753693e-08-9.064311590104e-01 1.396983861923e-07
    9.365177297225e-01 2.465312500000e+02-2.753626945741e+00-8.590714980618e-09
    8.786080261224e-11 1.000000000000e+00 2.164000000000e+03 0.000000000000e+00
    2.400000000000e+00 0.000000000000e+00 3.725290298462e-09 2.700000000000e+01
    1.872000000000e+05 4.000000000000e+00
32 21  6 29  6  0  0.0 1.656869426370e-05-1.705302565824e-12 0.000000000000e+00
    3.200000000000e+01-4.065625000000e+01 4.549118060456e-09-1.166316476986e+00
   -1.961365342140e-06 5.037272931077e-03 1.091882586479e-05 5.153692199707e+03
    1.944000000000e+05 9.499490261078e-08-1.985692720941e+00 6.146728992462e-08
    9.571467179170e-01 1.652812500000e+02-2.359469636078e+00-7.911758127912e-09
    3.985880313628e-10 1.000000000000e+00 2.164000000000e+03 0.000000000000e+00
    2.400000000000e+00 0.000000000000e+00 4.656612873077e-10 3.200000000000e+01
    1.872000000000e+05 4.000000000000e+00
29 21  6 29  6  0  0.0-3.719362430274e-04-6.252776074689e-12 0.000000000000e+00
    9.600000000000e+01 9.375000000000e+01 3.747656104920e-09-1.770075014386e+00
    4.755333065987e-06 1.954276929609e-03 9.305775165558e-06 5.153623399734e+03
    1.944000000000e+05-7.450580596924e-09 1.236073889633e+00 2.235174179077e-08
    9.836723514561e-01 2.118125000000e+02 2.199797692667e+00-7.738179469092e-09
   -4.821629411647e-11 1.000000000000e+00 2.164000000000e+03 0.000000000000e+00
    3.400000000000e+00 0.000000000000e+00-9.778887033463e-09 9.600000000000e+01
    1.872000000000e+05 4.000000000000e+00
27 21  6 29  6  0  0.0-1.548039726913e-04-6.025402399246e-12 0.000000000000e+00
    5.900000000000e+01 7.146875000000e+01 3.808730077467e-09-1.921223432382e+00
    3.766268491745e-06 9.440033580177e-03 9.700655937195e-06 5.153691799164e+03
    1.944000000000e+05 5.587935447693e-09 1.162590723073e+00-1.545995473862e-07
    9.755977765805e-01 2.010000000000e+02 6.347071472203e-01-7.632817937505e-09
   -4.000166622996e-11 1.000000000000e+00 2.164000000000e+03 0.000000000000e+00
    2.400000000000e+00 0.000000000000e+00 1.862645149231e-09 5.900000000000e+01
    1.872000000000e+05 4.000000000000e+00
19 21  6 29  6  0  0.0 1.960014924407e-05 5.002220859751e-12 0.000000000000e+00
    5.400000000000e+01 6.884375000000e+01 3.876590046964e-09 5.783921537948e-01
    3.464519977570e-06 9.318409604020e-03 8.841976523399e-06 5.153641069412e+03
    1.944000000000e+05-1.862645149231e-09 1.268674176389e+00-1.806765794754e-07
    9.803372873716e-01 2.278437500000e+02 1.873822667367e+00-7.898186134012e-09
   -1.300054152474e-10 1.000000000000e+00 2.164000000000e+03 0.000000000000e+00
    2.400000000000e+00 0.000000000000e+00-1.536682248116e-08 5.400000000000e+01
    1.872000000000e+05 4.000000000000e+00
21 21  6 29  6  0  0.0 1.280787400901e-04 2.387423592154e-12 0.000000000000e+00
    5.900000000000e+01 4.868750000000e+01 4.554832584203e-09-1.732497140089e+00
    3.065913915634e-06 2.402100153267e-02 4.092231392860e-06 5.153672428131e+03
    1.944000000000e+05-3.352761268616e-07 2.136254336162e+00 5.234032869339e-07
    9.574215446332e-01 3.044062500000e+02-1.120109785206e+00-8.360705399796e-09
    2.353669468352e-10 1.000000000000e+00 2.164000000000e+03 0.000000000000e+00
    2.400000000000e+00 0.000000000000e+00-1.024454832077e-08 5.900000000000e+01
    1.872000000000e+05 4.000000000000e+00
25 21  6 29  6  0  0.0 1.644114963710e-04 6.821210263297e-12 0.000000000000e+00
    4.100000000000e+01 2.500000000000e+00 4.747340602934e-09 6.035543154999e-01
    2.272427082062e-07 9.845591383055e-03 8.113682270050e-06 5.153605855942e+03
    1.944000000000e+05-5.960464477539e-08 1.135703535182e-01 9.872019290924e-08
    9.608686345955e-01 2.228750000000e+02 9.711305455652e-01-8.231057142283e-09
   -6.253831925773e-10 1.000000000000e+00 2.164000000000e+03 0.000000000000e+00
    2.400000000000e+00 0.000000000000e+00 5.587935447693e-09 4.100000000000e+01
    1.872000000000e+05 4.000000000000e+00
